ORBCOMM FM20            
1 25416U 98046D   24194.58065780  .00001512  00000+0  57020-3 0  9999
2 25416  44.9963 347.5571 0001073 206.7018 153.3774 14.35438306355439
ORBCOMM FM16            
1 25417U 98046E   24194.84213309  .00002148  00000+0  77304-3 0  9994
2 25417  44.9954 341.5947 0002178  32.6462 327.4520 14.36498587355630
ORBCOMM FM15            
1 25418U 98046F   24194.81120006  .00002076  00000+0  75289-3 0  9993
2 25418  44.9984 345.9539 0001865  38.8896 321.2085 14.36210921355586
ORBCOMM FM14            
1 25419U 98046G   24194.82772833  .00002250  00000+0  80900-3 0  9996
2 25419  44.9976 344.8957 0000665   3.0959 356.9892 14.36406432355597
ORBCOMM FM13            
1 25420U 98046H   24194.55854143  .00001795  00000+0  66528-3 0  9996
2 25420  44.9993 351.4090 0003194   7.5060 352.5834 14.35634378354398
ORBCOMM FM21            
1 25475U 98053A   24194.79135751  .00001449  00000+0  54747-3 0  9993
2 25475  45.0096  74.7253 0001133 357.5554   2.5287 14.35530139348776
ORBCOMM FM22            
1 25476U 98053B   24194.81406974  .00001785  00000+0  65575-3 0  9999
2 25476  45.0090  71.6320 0002385 331.2809  28.7907 14.36105677348803
ORBCOMM FM23            
1 25477U 98053C   24194.19114076  .00001385  00000+0  52493-3 0  9991
2 25477  45.0095  79.9627 0002002 332.0855  27.9885 14.35580473348509
